     3.00           N                   E                   RINEX VERSION / TYPE
BRD_USR             ESA                 20190115 171718  UTCPGM / RUN BY / DATE
 GAL   3.5750E+01  1.3672E-01 -6.1035E-05  0.0000E+00       IONOSPHERIC CORR
GAUT  1.8626451492E-09-8.881784197E-16 172800 2036 GSTB   0 TIME SYSTEM CORR
GPGA -4.4528860599E-09-2.442490654E-14 259200 2036 GSTB   0 TIME SYSTEM CORR
                                                            END OF HEADER
E26 2019 01 15 15 10 00 5.016653100029E-03-4.335731773608E-11 0.000000000000E+00
     1.230000000000E+02-7.262500000000E+01 2.657253542419E-09 3.918126659874E-01
    -3.360211849213E-06 3.187159309164E-04 1.028925180435E-05 5.440614793777E+03
     2.274000000000E+05 1.303851604462E-08-9.821744242843E-01 1.490116119385E-08
     9.783564904406E-01 1.262500000000E+02-1.962517645252E+00-5.423440193768E-09
     2.614394614315E-10 5.210000000000E+02 2.036000000000E+03 0.000000000000E+00
     3.120000000000E+00 0.000000000000E+00 1.164153218269E-09 1.164153218269E-09
     2.285650000000E+05 0.000000000000E+00 0.000000000000E+00 0.000000000000E+00
E30 2019 01 15 15 10 00 5.186336638872E-03-3.039701823582E-11 0.000000000000E+00
     1.230000000000E+02 9.831250000000E+01 2.904763852217E-09 1.451989491659E+00
     4.477798938751E-06 3.123047063127E-04 4.377216100693E-06 5.440614112854E+03
     2.274000000000E+05 7.450580596924E-09-3.067696329706E+00-6.519258022308E-08
     9.876532104863E-01 2.614062500000E+02 6.338847707479E-01-5.705951961517E-09
    -3.357282701443E-11 5.210000000000E+02 2.036000000000E+03 0.000000000000E+00
     3.120000000000E+00 0.000000000000E+00-3.026798367500E-09-3.725290298462E-09
     2.285650000000E+05 0.000000000000E+00 0.000000000000E+00 0.000000000000E+00
E26 2019 01 15 15 10 00 5.016652459744E-03-4.337152859080E-11 0.000000000000E+00
     1.230000000000E+02-7.262500000000E+01 2.657253542419E-09 3.918126659874E-01
    -3.360211849213E-06 3.187159309164E-04 1.028925180435E-05 5.440614793777E+03
     2.274000000000E+05 1.303851604462E-08-9.821744242843E-01 1.490116119385E-08
     9.783564904406E-01 1.262500000000E+02-1.962517645252E+00-5.423440193768E-09
     2.614394614315E-10 2.580000000000E+02 2.036000000000E+03 0.000000000000E+00
     3.120000000000E+00 0.000000000000E+00 1.164153218269E-09 0.000000000000E+00
     2.286000000000E+05 0.000000000000E+00 0.000000000000E+00 0.000000000000E+00
E01 2019 01 15 15 10 00-5.213545518927E-04-8.142819751811E-12 0.000000000000E+00
     1.230000000000E+02 1.003125000000E+02 2.901549432609E-09 3.196095805419E-01
     4.522502422333E-06 7.836788427085E-05 4.692003130913E-06 5.440614631653E+03
     2.274000000000E+05-5.401670932770E-08-3.071095620283E+00 9.313225746155E-09
     9.901009328323E-01 2.512500000000E+02-5.878532575563E-01-5.671307661300E-09
    -3.214419607765E-12 5.210000000000E+02 2.036000000000E+03 0.000000000000E+00
     3.120000000000E+00 0.000000000000E+00-4.656612873077E-09-5.122274160385E-09
     2.286250000000E+05 0.000000000000E+00 0.000000000000E+00 0.000000000000E+00
E01 2019 01 15 15 10 00-5.213544354774E-04-8.142819751811E-12 0.000000000000E+00
     1.230000000000E+02 1.003125000000E+02 2.901549432609E-09 3.196095805419E-01
     4.522502422333E-06 7.836788427085E-05 4.692003130913E-06 5.440614631653E+03
     2.274000000000E+05-5.401670932770E-08-3.071095620283E+00 9.313225746155E-09
     9.901009328323E-01 2.512500000000E+02-5.878532575563E-01-5.671307661300E-09
    -3.214419607765E-12 2.580000000000E+02 2.036000000000E+03 0.000000000000E+00
     3.120000000000E+00 0.000000000000E+00-4.656612873077E-09 0.000000000000E+00
     2.286500000000E+05 0.000000000000E+00 0.000000000000E+00 0.000000000000E+00
E01 2019 01 15 15 20 00-5.213593249209E-04-8.128608897096E-12 0.000000000000E+00
     1.240000000000E+02 1.005312500000E+02 2.911549849166E-09 3.931287729228E-01
     4.537403583527E-06 7.844460196793E-05 4.636123776436E-06 5.440614839554E+03
     2.280000000000E+05-6.891787052155E-08-3.071099002549E+00 0.000000000000E+00
     9.901008479831E-01 2.520000000000E+02-5.869872510151E-01-5.685593970667E-09
    -7.143154683922E-13 5.210000000000E+02 2.036000000000E+03 0.000000000000E+00
     3.120000000000E+00 0.000000000000E+00-4.656612873077E-09-5.122274160385E-09
     2.286850000000E+05 0.000000000000E+00 0.000000000000E+00 0.000000000000E+00
E02 2019 01 15 15 20 00 4.344689659774E-05 1.634248292248E-12 0.000000000000E+00
     1.240000000000E+02 8.643750000000E+01 2.882262914962E-09 3.059095260854E+00
     3.926455974579E-06 2.510743215680E-04 4.149973392487E-06 5.440618541718E+03
     2.280000000000E+05 5.774199962616E-08-3.071132166902E+00-3.352761268616E-08
     9.901095318648E-01 2.647812500000E+02-1.130761285889E-01-5.671664819034E-09
    -4.500187450871E-11 5.210000000000E+02 2.036000000000E+03 0.000000000000E+00
     3.120000000000E+00 0.000000000000E+00-6.053596735001E-09-7.683411240578E-09
     2.286850000000E+05 0.000000000000E+00 0.000000000000E+00 0.000000000000E+00
E05 2019 01 15 15 20 00 1.245916355401E-04-6.536993168993E-12 0.000000000000E+00
     1.240000000000E+02-3.671875000000E+01 3.541933250023E-09-2.098992101069E+00
    -1.678243279457E-06 1.303384779021E-04 8.163973689079E-06 5.440616069794E+03
     2.280000000000E+05-1.862645149231E-08 1.119502843901E+00 3.166496753693E-08
     9.524283097192E-01 1.637500000000E+02 1.640265701113E+00-5.695237229491E-09
    -1.967939115420E-10 5.210000000000E+02 2.036000000000E+03 0.000000000000E+00
     3.120000000000E+00 0.000000000000E+00-1.396983861923E-09-1.396983861923E-09
     2.286850000000E+05 0.000000000000E+00 0.000000000000E+00 0.000000000000E+00
E08 2019 01 15 15 20 00 6.422891339753E-03-7.489120434911E-12 0.000000000000E+00
     1.240000000000E+02-3.484375000000E+01 3.467644441310E-09-2.476495078795E+00
    -1.672655344009E-06 2.099326811731E-04 8.694827556610E-06 5.440613044739E+03
     2.280000000000E+05 8.754432201385E-08 1.110922176905E+00-1.303851604462E-08
     9.584013588864E-01 1.516875000000E+02 4.464417472679E-01-5.708452065656E-09
    -2.846547141543E-10 5.210000000000E+02 2.036000000000E+03 0.000000000000E+00
     3.120000000000E+00 0.000000000000E+00-8.847564458847E-09-1.001171767712E-08
     2.286850000000E+05 0.000000000000E+00 0.000000000000E+00 0.000000000000E+00
E09 2019 01 15 15 20 00 6.557440559845E-03-1.129762949859E-11 0.000000000000E+00
     1.240000000000E+02-3.937500000000E+01 3.427642775080E-09 2.514083440752E-01
    -1.847743988037E-06 2.375226467848E-04 8.238479495049E-06 5.440616619110E+03
     2.280000000000E+05-4.284083843231E-08 1.110918879488E+00-7.450580596924E-09
     9.584316412906E-01 1.649687500000E+02 7.345548522437E-02-5.670236188097E-09
    -2.096515899731E-10 5.210000000000E+02 2.036000000000E+03 0.000000000000E+00
     3.120000000000E+00 0.000000000000E+00-3.259629011154E-09-3.958120942116E-09
     2.286850000000E+05 0.000000000000E+00 0.000000000000E+00 0.000000000000E+00
E11 2019 01 15 15 20 00 5.719837266952E-03 6.963318810449E-13 0.000000000000E+00
     1.240000000000E+02-5.178125000000E+01 2.603322724555E-09 2.774737307129E+00
    -2.354383468628E-06 2.842512913048E-04 8.793547749519E-06 5.440609312057E+03
     2.280000000000E+05-3.725290298462E-09-9.857908426255E-01-1.862645149231E-08
     9.819987292859E-01 1.600937500000E+02-3.539081762104E-01-5.440226607275E-09
     2.346526313668E-10 5.210000000000E+02 2.036000000000E+03 0.000000000000E+00
     3.120000000000E+00 0.000000000000E+00-1.862645149231E-08-2.002343535423E-08
     2.286850000000E+05 0.000000000000E+00 0.000000000000E+00 0.000000000000E+00
E15 2019 01 15 15 20 00 9.228890994564E-04-1.023181539495E-12 0.000000000000E+00
     1.240000000000E+02-5.556250000000E+01 2.526533811703E-09 1.637014323257E+00
    -2.503395080566E-06 3.934826236218E-04 1.067854464054E-05 5.440603509903E+03
     2.280000000000E+05 1.862645149231E-09-9.910834110593E-01 2.980232238770E-08
     9.851982013453E-01 1.209062500000E+02-1.568895827974E+00-5.379866950196E-09
     3.025126008641E-10 5.210000000000E+02 2.036000000000E+03 0.000000000000E+00
     3.120000000000E+00 4.550000000000E+02 1.396983861923E-09 1.396983861923E-09
     2.286850000000E+05 0.000000000000E+00 0.000000000000E+00 0.000000000000E+00
E18 2019 01 15 15 20 00 5.604252510238E-03-2.846434199455E-11 0.000000000000E+00
     1.240000000000E+02-2.102187500000E+02 4.910918845196E-09 2.387314656415E+00
    -8.745118975639E-06 1.663218504982E-01 1.896172761917E-06 5.289381320953E+03
     2.280000000000E+05 2.605840563774E-06-1.571138632070E+00-6.649643182755E-07
     8.818453270489E-01 2.885312500000E+02 1.443155281942E+00-5.711309327530E-09
    -5.357366012941E-12 5.210000000000E+02 2.036000000000E+03 0.000000000000E+00
     3.120000000000E+00 4.550000000000E+02 1.420266926289E-08 1.583248376846E-08
     2.286850000000E+05 0.000000000000E+00 0.000000000000E+00 0.000000000000E+00
E19 2019 01 15 15 20 00-9.101349860430E-06 2.557953848736E-13 0.000000000000E+00
     1.240000000000E+02-5.568750000000E+01 3.508003265274E-09-4.284799513156E-01
    -2.503395080566E-06 1.317324349657E-04 7.975846529007E-06 5.440612821579E+03
     2.280000000000E+05 1.303851604462E-08 1.116274087148E+00-3.911554813385E-08
     9.581878255119E-01 1.689687500000E+02 2.403544960084E+00-5.702737541909E-09
    -2.767972440020E-10 5.210000000000E+02 2.036000000000E+03 0.000000000000E+00
     3.120000000000E+00 0.000000000000E+00-8.614733815193E-09-9.080395102501E-09
     2.286850000000E+05 0.000000000000E+00 0.000000000000E+00 0.000000000000E+00
